[{"OBJECT_NAME":"COSMOS 2242","OBJECT_ID":"1993-024A","EPOCH":"2026-03-02T22:47:28.733568","MEAN_MOTION":14.96515773,"ECCENTRICITY":0.00157025,"INCLINATION":82.5159,"RA_OF_ASC_NODE":273.165,"ARG_OF_PERICENTER":333.0197,"MEAN_ANOMALY":27.0207,"EPHEMERIS_TYPE":0,"CLASSIFICATION_TYPE":"U","NORAD_CAT_ID":22626,"ELEMENT_SET_NO":999,"REV_AT_EPOCH":77938,"BSTAR":0.00018533174,"MEAN_MOTION_DOT":2.136e-5,"MEAN_MOTION_DDOT":0},{"OBJECT_NAME":"SL-16 R/B","OBJECT_ID":"1993-059B","EPOCH":"2026-03-02T21:54:30.322080","MEAN_MOTION":14.1723199,"ECCENTRICITY":0.00188232,"INCLINATION":70.9918,"RA_OF_ASC_NODE":25.4162,"ARG_OF_PERICENTER":226.0978,"MEAN_ANOMALY":133.8593,"EPHEMERIS_TYPE":0,"CLASSIFICATION_TYPE":"U","NORAD_CAT_ID":22803,"ELEMENT_SET_NO":999,"REV_AT_EPOCH":67857,"BSTAR":5.6964744e-5,"MEAN_MOTION_DOT":6.7e-7,"MEAN_MOTION_DDOT":0},{"OBJECT_NAME":"ARIANE 40 R/B","OBJECT_ID":"1993-061H","EPOCH":"2026-03-02T18:50:53.948832","MEAN_MOTION":14.32856652,"ECCENTRICITY":0.00096737,"INCLINATION":98.4932,"RA_OF_ASC_NODE":130.809,"ARG_OF_PERICENTER":307.9331,"MEAN_ANOMALY":52.0979,"EPHEMERIS_TYPE":0,"CLASSIFICATION_TYPE":"U","NORAD_CAT_ID":22830,"ELEMENT_SET_NO":999,"REV_AT_EPOCH":69311,"BSTAR":0.00010738734,"MEAN_MOTION_DOT":2.5e-6,"MEAN_MOTION_DDOT":0},{"OBJECT_NAME":"COSMOS 2278","OBJECT_ID":"1994-023A","EPOCH":"2026-03-02T19:23:51.987840","MEAN_MOTION":14.1437494,"ECCENTRICITY":0.00076141,"INCLINATION":71.054,"RA_OF_ASC_NODE":189.4927,"ARG_OF_PERICENTER":27.3073,"MEAN_ANOMALY":332.8449,"EPHEMERIS_TYPE":0,"CLASSIFICATION_TYPE":"U","NORAD_CAT_ID":23087,"ELEMENT_SET_NO":999,"REV_AT_EPOCH":64383,"BSTAR":0.00019661451,"MEAN_MOTION_DOT":3.29e-6,"MEAN_MOTION_DDOT":0},{"OBJECT_NAME":"SL-16 R/B","OBJECT_ID":"1994-023B","EPOCH":"2026-03-02T12:06:15.217056","MEAN_MOTION":14.1501349,"ECCENTRICITY":0.00055626,"INCLINATION":70.9986,"RA_OF_ASC_NODE":85.9784,"ARG_OF_PERICENTER":292.6207,"MEAN_ANOMALY":67.4327,"EPHEMERIS_TYPE":0,"CLASSIFICATION_TYPE":"U","NORAD_CAT_ID":23088,"ELEMENT_SET_NO":999,"REV_AT_EPOCH":64507,"BSTAR":-8.193883e-6,"MEAN_MOTION_DOT":-6.4e-7,"MEAN_MOTION_DDOT":0},{"OBJECT_NAME":"SL-16 R/B","OBJECT_ID":"1994-074B","EPOCH":"2026-03-02T23:06:45.024768","MEAN_MOTION":14.79398546,"ECCENTRICITY":0.00053503,"INCLINATION":97.7118,"RA_OF_ASC_NODE":93.0531,"ARG_OF_PERICENTER":236.3651,"MEAN_ANOMALY":189.3663,"EPHEMERIS_TYPE":0,"CLASSIFICATION_TYPE":"U","NORAD_CAT_ID":23343,"ELEMENT_SET_NO":999,"REV_AT_EPOCH":68625,"BSTAR":8.5186599e-5,"MEAN_MOTION_DOT":5.86e-6,"MEAN_MOTION_DDOT":0},{"OBJECT_NAME":"SL-16 R/B","OBJECT_ID":"1994-077B","EPOCH":"2026-03-02T21:54:20.837088","MEAN_MOTION":14.15562511,"ECCENTRICITY":0.00034715,"INCLINATION":70.9851,"RA_OF_ASC_NODE":6.7448,"ARG_OF_PERICENTER":221.4825,"MEAN_ANOMALY":138.6035,"EPHEMERIS_TYPE":0,"CLASSIFICATION_TYPE":"U","NORAD_CAT_ID":23405,"ELEMENT_SET_NO":999,"REV_AT_EPOCH":61527,"BSTAR":-0.00010550048,"MEAN_MOTION_DOT":-2.54e-6,"MEAN_MOTION_DDOT":0},{"OBJECT_NAME":"ARIANE 40+ R/B","OBJECT_ID":"1995-021B","EPOCH":"2026-03-02T19:22:37.099776","MEAN_MOTION":14.39766516,"ECCENTRICITY":0.00073568,"INCLINATION":98.4512,"RA_OF_ASC_NODE":133.3829,"ARG_OF_PERICENTER":154.7497,"MEAN_ANOMALY":316.2603,"EPHEMERIS_TYPE":0,"CLASSIFICATION_TYPE":"U","NORAD_CAT_ID":23561,"ELEMENT_SET_NO":999,"REV_AT_EPOCH":61825,"BSTAR":0.00012729976,"MEAN_MOTION_DOT":3.56e-6,"MEAN_MOTION_DDOT":0},{"OBJECT_NAME":"SL-16 R/B","OBJECT_ID":"1995-058B","EPOCH":"2026-03-02T18:40:25.073472","MEAN_MOTION":14.15492688,"ECCENTRICITY":0.00110394,"INCLINATION":71.0209,"RA_OF_ASC_NODE":194.7644,"ARG_OF_PERICENTER":138.0048,"MEAN_ANOMALY":222.1923,"EPHEMERIS_TYPE":0,"CLASSIFICATION_TYPE":"U","NORAD_CAT_ID":23705,"ELEMENT_SET_NO":999,"REV_AT_EPOCH":56687,"BSTAR":-1.2568173e-5,"MEAN_MOTION_DOT":-7.2e-7,"MEAN_MOTION_DDOT":0},{"OBJECT_NAME":"SL-16 R/B","OBJECT_ID":"1996-051B","EPOCH":"2026-03-02T20:54:49.782528","MEAN_MOTION":14.12413544,"ECCENTRICITY":0.00156917,"INCLINATION":70.7594,"RA_OF_ASC_NODE":189.6692,"ARG_OF_PERICENTER":158.1002,"MEAN_ANOMALY":202.0792,"EPHEMERIS_TYPE":0,"CLASSIFICATION_TYPE":"U","NORAD_CAT_ID":24298,"ELEMENT_SET_NO":999,"REV_AT_EPOCH":52068,"BSTAR":6.9136589e-5,"MEAN_MOTION_DOT":7.9e-7,"MEAN_MOTION_DDOT":0},{"OBJECT_NAME":"ORBVIEW 2 (SEASTAR)","OBJECT_ID":"1997-037A","EPOCH":"2026-03-02T22:27:14.720256","MEAN_MOTION":14.35488813,"ECCENTRICITY":0.00031859,"INCLINATION":98.8554,"RA_OF_ASC_NODE":226.0688,"ARG_OF_PERICENTER":85.5692,"MEAN_ANOMALY":274.5857,"EPHEMERIS_TYPE":0,"CLASSIFICATION_TYPE":"U","NORAD_CAT_ID":24883,"ELEMENT_SET_NO":999,"REV_AT_EPOCH":50750,"BSTAR":0.00015404012,"MEAN_MOTION_DOT":3.96e-6,"MEAN_MOTION_DDOT":0},{"OBJECT_NAME":"SL-16 R/B","OBJECT_ID":"1998-043G","EPOCH":"2026-03-02T20:32:02.779008","MEAN_MOTION":14.26047932,"ECCENTRICITY":0.00105506,"INCLINATION":98.8243,"RA_OF_ASC_NODE":15.1711,"ARG_OF_PERICENTER":39.2642,"MEAN_ANOMALY":320.93,"EPHEMERIS_TYPE":0,"CLASSIFICATION_TYPE":"U","NORAD_CAT_ID":25400,"ELEMENT_SET_NO":999,"REV_AT_EPOCH":43801,"BSTAR":5.1498448e-5,"MEAN_MOTION_DOT":7.8e-7,"MEAN_MOTION_DDOT":0},{"OBJECT_NAME":"SL-16 R/B","OBJECT_ID":"1998-045B","EPOCH":"2026-03-02T19:01:03.213984","MEAN_MOTION":14.16189648,"ECCENTRICITY":0.00063447,"INCLINATION":71.0112,"RA_OF_ASC_NODE":196.0774,"ARG_OF_PERICENTER":18.8432,"MEAN_ANOMALY":341.2924,"EPHEMERIS_TYPE":0,"CLASSIFICATION_TYPE":"U","NORAD_CAT_ID":25407,"ELEMENT_SET_NO":999,"REV_AT_EPOCH":42612,"BSTAR":-9.6011898e-5,"MEAN_MOTION_DOT":-2.38e-6,"MEAN_MOTION_DDOT":0},{"OBJECT_NAME":"ISS (ZARYA)","OBJECT_ID":"1998-067A","EPOCH":"2026-03-02T22:19:59.516544","MEAN_MOTION":15.48408287,"ECCENTRICITY":0.00082151,"INCLINATION":51.6319,"RA_OF_ASC_NODE":105.7724,"ARG_OF_PERICENTER":150.8374,"MEAN_ANOMALY":209.3075,"EPHEMERIS_TYPE":0,"CLASSIFICATION_TYPE":"U","NORAD_CAT_ID":25544,"ELEMENT_SET_NO":999,"REV_AT_EPOCH":55528,"BSTAR":0.00018074912,"MEAN_MOTION_DOT":9.325e-5,"MEAN_MOTION_DDOT":0},{"OBJECT_NAME":"CZ-4B R/B","OBJECT_ID":"1999-025C","EPOCH":"2026-03-02T23:09:45.897984","MEAN_MOTION":14.18263744,"ECCENTRICITY":0.00371289,"INCLINATION":98.6641,"RA_OF_ASC_NODE":106.4057,"ARG_OF_PERICENTER":6.0276,"MEAN_ANOMALY":64.1457,"EPHEMERIS_TYPE":0,"CLASSIFICATION_TYPE":"U","NORAD_CAT_ID":25732,"ELEMENT_SET_NO":999,"REV_AT_EPOCH":38721,"BSTAR":5.5380178e-5,"MEAN_MOTION_DOT":7.2e-7,"MEAN_MOTION_DDOT":0},{"OBJECT_NAME":"OKEAN-O","OBJECT_ID":"1999-039A","EPOCH":"2026-03-02T18:10:41.086272","MEAN_MOTION":14.80322247,"ECCENTRICITY":0.000147,"INCLINATION":97.9457,"RA_OF_ASC_NODE":121.7189,"ARG_OF_PERICENTER":71.5784,"MEAN_ANOMALY":288.5588,"EPHEMERIS_TYPE":0,"CLASSIFICATION_TYPE":"U","NORAD_CAT_ID":25860,"ELEMENT_SET_NO":999,"REV_AT_EPOCH":43336,"BSTAR":0.00011460294,"MEAN_MOTION_DOT":8.21e-6,"MEAN_MOTION_DDOT":0},{"OBJECT_NAME":"SL-16 R/B","OBJECT_ID":"1999-039B","EPOCH":"2026-03-02T17:51:05.910624","MEAN_MOTION":14.81720143,"ECCENTRICITY":0.00134412,"INCLINATION":97.9981,"RA_OF_ASC_NODE":120.8504,"ARG_OF_PERICENTER":281.0263,"MEAN_ANOMALY":78.9437,"EPHEMERIS_TYPE":0,"CLASSIFICATION_TYPE":"U","NORAD_CAT_ID":25861,"ELEMENT_SET_NO":999,"REV_AT_EPOCH":43583,"BSTAR":9.9659086e-5,"MEAN_MOTION_DOT":7.32e-6,"MEAN_MOTION_DDOT":0}]
