COSMOS 2242             
1 22626U 93024A   26061.94963812  .00002136  00000+0  18533-3 0  9997
2 22626  82.5159 273.1650 0015702 333.0197  27.0207 14.96515773779385
SL-16 R/B               
1 22803U 93059B   26061.91285095  .00000067  00000+0  56965-4 0  9992
2 22803  70.9918  25.4162 0018823 226.0978 133.8593 14.17231990678579
ARIANE 40 R/B           
1 22830U 93061H   26061.78534663  .00000250  00000+0  10739-3 0  9990
2 22830  98.4932 130.8090 0009673 307.9331  52.0979 14.32856652693118
COSMOS 2278             
1 23087U 94023A   26061.80824060  .00000329  00000+0  19661-3 0  9990
2 23087  71.0540 189.4927 0007614  27.3073 332.8449 14.14374940643833
SL-16 R/B               
1 23088U 94023B   26061.50434279 -.00000064  00000+0 -81939-5 0  9994
2 23088  70.9986  85.9784 0005562 292.6207  67.4327 14.15013490645078
SL-16 R/B               
1 23343U 94074B   26061.96302112  .00000586  00000+0  85187-4 0  9999
2 23343  97.7118  93.0531 0005350 236.3651 189.3663 14.79398546686259
SL-16 R/B               
1 23405U 94077B   26061.91274117 -.00000254  00000+0 -10550-3 0  9994
2 23405  70.9851   6.7448 0003471 221.4825 138.6035 14.15562511615272
ARIANE 40+ R/B          
1 23561U 95021B   26061.80737384  .00000356  00000+0  12730-3 0  9998
2 23561  98.4512 133.3829 0007356 154.7497 316.2603 14.39766516618256
SL-16 R/B               
1 23705U 95058B   26061.77806798 -.00000072  00000+0 -12568-4 0  9997
2 23705  71.0209 194.7644 0011039 138.0048 222.1923 14.15492688566872
SL-16 R/B               
1 24298U 96051B   26061.87140952  .00000079  00000+0  69137-4 0  9992
2 24298  70.7594 189.6692 0015691 158.1002 202.0792 14.12413544520681
ORBVIEW 2 (SEASTAR)     
1 24883U 97037A   26061.93558704  .00000396  00000+0  15404-3 0  9991
2 24883  98.8554 226.0688 0003185  85.5692 274.5857 14.35488813507500
SL-16 R/B               
1 25400U 98043G   26061.85558772  .00000078  00000+0  51498-4 0  9992
2 25400  98.8243  15.1711 0010550  39.2642 320.9300 14.26047932438011
SL-16 R/B               
1 25407U 98045B   26061.79239831 -.00000238  00000+0 -96012-4 0  9997
2 25407  71.0112 196.0774 0006344  18.8432 341.2924 14.16189648426127
ISS (ZARYA)             
1 25544U 98067A   26061.93054996  .00009325  00000+0  18075-3 0  9992
2 25544  51.6319 105.7724 0008215 150.8374 209.3075 15.48408287555285
CZ-4B R/B               
1 25732U 99025C   26061.96511456  .00000072  00000+0  55380-4 0  9999
2 25732  98.6641 106.4057 0037128   6.0276  64.1457 14.18263744387218
OKEAN-O                 
1 25860U 99039A   26061.75741998  .00000821  00000+0  11460-3 0  9991
2 25860  97.9457 121.7189 0001470  71.5784 288.5588 14.80322247433363
SL-16 R/B               
1 25861U 99039B   26061.74381841  .00000732  00000+0  99659-4 0  9996
2 25861  97.9981 120.8504 0013441 281.0263  78.9437 14.81720143435834
